start=new Date('2021-10-16T00:00:00.000Z').valueOf();
sats=[{"OBJECT_TYPE":"PAYLOAD","SEMIMAJOR_AXIS":"6925.531","COUNTRY_CODE":"US","REF_FRAME":"TEME","DECAY_DATE":null,"TLE_LINE1":"1 48584U 21041AH  21288.74353094  .00008713  00000-0  60403-3 0  9998","OBJECT_NAME":"STARLINK-2238","MEAN_MOTION_DDOT":"0.0000000000000","INCLINATION":"53.0557","RA_OF_ASC_NODE":"150.9807","TIME_SYSTEM":"UTC","ARG_OF_PERICENTER":"84.6353","PERIOD":"95.596","LAUNCH_DATE":"2021-05-15","GP_ID":"187281976","MEAN_MOTION_DOT":"0.00008713","MEAN_ELEMENT_THEORY":"SGP4","REV_AT_EPOCH":"2300","TLE_LINE2":"2 48584  53.0557 150.9807 0001734  84.6353 275.4834 15.06340583 23003","CLASSIFICATION_TYPE":"U","RCS_SIZE":"LARGE","MEAN_MOTION":"15.06340583","CENTER_NAME":"EARTH","MEAN_ANOMALY":"275.4834","ECCENTRICITY":"0.00017340","OBJECT_ID":"2021-041AH","EPHEMERIS_TYPE":"0","APOAPSIS":"548.597","BSTAR":"0.00060403000000","PERIAPSIS":"546.195","NORAD_CAT_ID":"48584","ELEMENT_SET_NO":"999","EPOCH":"2021-10-15T17:50:41.073216","SITE":"AFETR","FILE":"3165217"},{"GP_ID":"187281754","REV_AT_EPOCH":"2300","MEAN_ELEMENT_THEORY":"SGP4","MEAN_MOTION_DOT":"-0.00000292","OBJECT_ID":"2021-041AJ","MEAN_ANOMALY":"279.1928","ECCENTRICITY":"0.00013660","MEAN_MOTION":"15.06396270","CENTER_NAME":"EARTH","TLE_LINE2":"2 48585  53.0546 150.9376 0001366  80.9216 279.1928 15.06396270 23000","CLASSIFICATION_TYPE":"U","RCS_SIZE":"LARGE","SITE":"AFETR","FILE":"3165217","EPOCH":"2021-10-15T18:06:33.382656","BSTAR":"-0.00000069508000","PERIAPSIS":"546.279","NORAD_CAT_ID":"48585","ELEMENT_SET_NO":"999","EPHEMERIS_TYPE":"0","APOAPSIS":"548.171","REF_FRAME":"TEME","DECAY_DATE":null,"TLE_LINE1":"1 48585U 21041AJ  21288.75455304 -.00000292  00000-0 -69508-6 0  9991","OBJECT_NAME":"STARLINK-2240","COUNTRY_CODE":"US","SEMIMAJOR_AXIS":"6925.360","OBJECT_TYPE":"PAYLOAD","TIME_SYSTEM":"UTC","ARG_OF_PERICENTER":"80.9216","RA_OF_ASC_NODE":"150.9376","MEAN_MOTION_DDOT":"0.0000000000000","INCLINATION":"53.0546","PERIOD":"95.592","LAUNCH_DATE":"2021-05-15"},{"REF_FRAME":"TEME","TLE_LINE1":"1 48586U 21041AK  21288.61450824 -.00000311  00000-0 -19987-5 0  9996","OBJECT_NAME":"STARLINK-2241","DECAY_DATE":null,"COUNTRY_CODE":"US","SEMIMAJOR_AXIS":"6925.398","OBJECT_TYPE":"PAYLOAD","TIME_SYSTEM":"UTC","ARG_OF_PERICENTER":"70.2388","RA_OF_ASC_NODE":"151.5663","INCLINATION":"53.0544","MEAN_MOTION_DDOT":"0.0000000000000","PERIOD":"95.593","LAUNCH_DATE":"2021-05-15","GP_ID":"187281192","REV_AT_EPOCH":"2298","MEAN_ELEMENT_THEORY":"SGP4","MEAN_MOTION_DOT":"-0.00000311","OBJECT_ID":"2021-041AK","MEAN_ANOMALY":"289.8784","ECCENTRICITY":"0.00017050","MEAN_MOTION":"15.06383922","CENTER_NAME":"EARTH","TLE_LINE2":"2 48586  53.0544 151.5663 0001705  70.2388 289.8784 15.06383922 22988","CLASSIFICATION_TYPE":"U","RCS_SIZE":"LARGE","SITE":"AFETR","FILE":"3165217","EPOCH":"2021-10-15T14:44:53.511936","BSTAR":"-0.00000199870000","PERIAPSIS":"546.082","ELEMENT_SET_NO":"999","NORAD_CAT_ID":"48586","EPHEMERIS_TYPE":"0","APOAPSIS":"548.444"},{"GP_ID":"187281642","REV_AT_EPOCH":"2300","MEAN_ELEMENT_THEORY":"SGP4","MEAN_MOTION_DOT":"-0.00000414","OBJECT_ID":"2021-041AL","MEAN_ANOMALY":"282.6958","ECCENTRICITY":"0.00018340","MEAN_MOTION":"15.06383874","CENTER_NAME":"EARTH","TLE_LINE2":"2 48587  53.0536 150.9323 0001834  77.4236 282.6958 15.06383874 23004","CLASSIFICATION_TYPE":"U","RCS_SIZE":"LARGE","SITE":"AFETR","FILE":"3165217","EPOCH":"2021-10-15T18:05:13.478208","BSTAR":"-0.00000889170000","PERIAPSIS":"545.993","ELEMENT_SET_NO":"999","NORAD_CAT_ID":"48587","EPHEMERIS_TYPE":"0","APOAPSIS":"548.533","REF_FRAME":"TEME","TLE_LINE1":"1 48587U 21041AL  21288.75362822 -.00000414  00000-0 -88917-5 0  9995","DECAY_DATE":null,"OBJECT_NAME":"STARLINK-2242","COUNTRY_CODE":"US","SEMIMAJOR_AXIS":"6925.398","OBJECT_TYPE":"PAYLOAD","TIME_SYSTEM":"UTC","ARG_OF_PERICENTER":"77.4236","RA_OF_ASC_NODE":"150.9323","INCLINATION":"53.0536","MEAN_MOTION_DDOT":"0.0000000000000","PERIOD":"95.593","LAUNCH_DATE":"2021-05-15"},{"EPHEMERIS_TYPE":"0","APOAPSIS":"548.521","BSTAR":"-0.00001549300000","PERIAPSIS":"545.935","ELEMENT_SET_NO":"999","NORAD_CAT_ID":"48588","EPOCH":"2021-10-15T14:19:39.769248","SITE":"AFETR","FILE":"3165217","TLE_LINE2":"2 48588  53.0551 141.6598 0001867  70.1791 289.9400 15.06395203 23129","CLASSIFICATION_TYPE":"U","RCS_SIZE":"LARGE","MEAN_MOTION":"15.06395203","CENTER_NAME":"EARTH","MEAN_ANOMALY":"289.9400","ECCENTRICITY":"0.00018670","OBJECT_ID":"2021-041AM","MEAN_MOTION_DOT":"-0.00000512","MEAN_ELEMENT_THEORY":"SGP4","REV_AT_EPOCH":"2312","GP_ID":"187281868","LAUNCH_DATE":"2021-05-15","PERIOD":"95.592","MEAN_MOTION_DDOT":"0.0000000000000","INCLINATION":"53.0551","RA_OF_ASC_NODE":"141.6598","TIME_SYSTEM":"UTC","ARG_OF_PERICENTER":"70.1791","OBJECT_TYPE":"PAYLOAD","SEMIMAJOR_AXIS":"6925.363","COUNTRY_CODE":"US","REF_FRAME":"TEME","DECAY_DATE":null,"TLE_LINE1":"1 48588U 21041AM  21288.59698807 -.00000512  00000-0 -15493-4 0  9990","OBJECT_NAME":"STARLINK-2244"},{"REV_AT_EPOCH":"2308","MEAN_MOTION_DOT":"-0.00000390","MEAN_ELEMENT_THEORY":"SGP4","GP_ID":"187241548","EPOCH":"2021-10-15T07:52:12.445248","FILE":"3164360","SITE":"AFETR","APOAPSIS":"548.676","EPHEMERIS_TYPE":"0","PERIAPSIS":"545.846","ELEMENT_SET_NO":"999","NORAD_CAT_ID":"48589","BSTAR":"-0.00000730590000","MEAN_ANOMALY":"303.3658","ECCENTRICITY":"0.00020430","OBJECT_ID":"2021-041AN","RCS_SIZE":"LARGE","CLASSIFICATION_TYPE":"U","TLE_LINE2":"2 48589  53.0531 142.8597 0002043  56.7527 303.3658 15.06384567 23086","CENTER_NAME":"EARTH","MEAN_MOTION":"15.06384567","RA_OF_ASC_NODE":"142.8597","ARG_OF_PERICENTER":"56.7527","TIME_SYSTEM":"UTC","MEAN_MOTION_DDOT":"0.0000000000000","INCLINATION":"53.0531","COUNTRY_CODE":"US","TLE_LINE1":"1 48589U 21041AN  21288.32792182 -.00000390  00000-0 -73059-5 0  9990","DECAY_DATE":null,"OBJECT_NAME":"STARLINK-2245","REF_FRAME":"TEME","OBJECT_TYPE":"PAYLOAD","SEMIMAJOR_AXIS":"6925.396","LAUNCH_DATE":"2021-05-15","PERIOD":"95.593"},{"MEAN_MOTION_DOT":"0.00000185","MEAN_ELEMENT_THEORY":"SGP4","REV_AT_EPOCH":"2294","GP_ID":"187241104","EPHEMERIS_TYPE":"0","APOAPSIS":"548.532","BSTAR":"0.00003130700000","PERIAPSIS":"545.946","NORAD_CAT_ID":"48590","ELEMENT_SET_NO":"999","EPOCH":"2021-10-15T08:28:01.289280","SITE":"AFETR","FILE":"3164360","TLE_LINE2":"2 48590  53.0544 152.7385 0001867  70.1223 289.9967 15.06391552 22941","CLASSIFICATION_TYPE":"U","RCS_SIZE":"LARGE","MEAN_MOTION":"15.06391552","CENTER_NAME":"EARTH","ECCENTRICITY":"0.00018670","MEAN_ANOMALY":"289.9967","OBJECT_ID":"2021-041AP","MEAN_MOTION_DDOT":"0.0000000000000","INCLINATION":"53.0544","RA_OF_ASC_NODE":"152.7385","TIME_SYSTEM":"UTC","ARG_OF_PERICENTER":"70.1223","OBJECT_TYPE":"PAYLOAD","SEMIMAJOR_AXIS":"6925.374","COUNTRY_CODE":"US","REF_FRAME":"TEME","DECAY_DATE":null,"TLE_LINE1":"1 48590U 21041AP  21288.35279270  .00000185  00000-0  31307-4 0  9992","OBJECT_NAME":"STARLINK-2246","LAUNCH_DATE":"2021-05-15","PERIOD":"95.593"},{"PERIOD":"95.593","LAUNCH_DATE":"2021-05-15","REF_FRAME":"TEME","TLE_LINE1":"1 48591U 21041AQ  21288.58594173 -.00000176  00000-0  70746-5 0  9992","OBJECT_NAME":"STARLINK-2248","DECAY_DATE":null,"COUNTRY_CODE":"US","SEMIMAJOR_AXIS":"6925.387","OBJECT_TYPE":"PAYLOAD","TIME_SYSTEM":"UTC","ARG_OF_PERICENTER":"65.5586","RA_OF_ASC_NODE":"141.7021","MEAN_MOTION_DDOT":"0.0000000000000","INCLINATION":"53.0546","OBJECT_ID":"2021-041AQ","MEAN_ANOMALY":"294.5631","ECCENTRICITY":"0.00021860","MEAN_MOTION":"15.06387435","CENTER_NAME":"EARTH","TLE_LINE2":"2 48591  53.0546 141.7021 0002186  65.5586 294.5631 15.06387435 24020","CLASSIFICATION_TYPE":"U","RCS_SIZE":"LARGE","SITE":"AFETR","FILE":"3165217","EPOCH":"2021-10-15T14:03:45.365472","BSTAR":"0.00000707460000","PERIAPSIS":"545.738","NORAD_CAT_ID":"48591","ELEMENT_SET_NO":"999","EPHEMERIS_TYPE":"0","APOAPSIS":"548.766","GP_ID":"187281305","REV_AT_EPOCH":"2402","MEAN_ELEMENT_THEORY":"SGP4","MEAN_MOTION_DOT":"-0.00000176"},{"PERIOD":"95.594","LAUNCH_DATE":"2021-05-15","REF_FRAME":"TEME","OBJECT_NAME":"STARLINK-2249","TLE_LINE1":"1 48592U 21041AR  21288.65137039 -.00001965  00000-0 -11314-3 0  9997","DECAY_DATE":null,"COUNTRY_CODE":"US","SEMIMAJOR_AXIS":"6925.424","OBJECT_TYPE":"PAYLOAD","TIME_SYSTEM":"UTC","ARG_OF_PERICENTER":"56.0527","RA_OF_ASC_NODE":"151.4053","MEAN_MOTION_DDOT":"0.0000000000000","INCLINATION":"53.0544","OBJECT_ID":"2021-041AR","MEAN_ANOMALY":"304.0630","ECCENTRICITY":"0.00017730","MEAN_MOTION":"15.06375462","CENTER_NAME":"EARTH","TLE_LINE2":"2 48592  53.0544 151.4053 0001773  56.0527 304.0630 15.06375462 22990","CLASSIFICATION_TYPE":"U","RCS_SIZE":"MEDIUM","SITE":"AFETR","FILE":"3165217","EPOCH":"2021-10-15T15:37:58.401696","BSTAR":"-0.00011314000000","ELEMENT_SET_NO":"999","PERIAPSIS":"546.061","NORAD_CAT_ID":"48592","EPHEMERIS_TYPE":"0","APOAPSIS":"548.517","GP_ID":"187281977","REV_AT_EPOCH":"2299","MEAN_ELEMENT_THEORY":"SGP4","MEAN_MOTION_DOT":"-0.00001965"},{"PERIOD":"95.594","LAUNCH_DATE":"2021-05-15","SEMIMAJOR_AXIS":"6925.457","OBJECT_TYPE":"PAYLOAD","REF_FRAME":"TEME","TLE_LINE1":"1 48593U 21041AS  21288.59240270 -.00003150  00000-0 -19288-3 0  9999","DECAY_DATE":null,"OBJECT_NAME":"STARLINK-2250","COUNTRY_CODE":"US","INCLINATION":"53.0519","MEAN_MOTION_DDOT":"0.0000000000000","TIME_SYSTEM":"UTC","ARG_OF_PERICENTER":"44.6408","RA_OF_ASC_NODE":"151.6588","MEAN_MOTION":"15.06364519","CENTER_NAME":"EARTH","TLE_LINE2":"2 48593  53.0519 151.6588 0001312  44.6408 315.4687 15.06364519 22986","CLASSIFICATION_TYPE":"U","RCS_SIZE":"LARGE","OBJECT_ID":"2021-041AS","ECCENTRICITY":"0.00013120","MEAN_ANOMALY":"315.4687","BSTAR":"-0.00019288000000","ELEMENT_SET_NO":"999","PERIAPSIS":"546.414","NORAD_CAT_ID":"48593","EPHEMERIS_TYPE":"0","APOAPSIS":"548.231","SITE":"AFETR","FILE":"3165217","EPOCH":"2021-10-15T14:13:03.593280","GP_ID":"187281755","MEAN_ELEMENT_THEORY":"SGP4","MEAN_MOTION_DOT":"-0.00003150","REV_AT_EPOCH":"2298"}];
